{
  "type": "FeatureCollection",
  "features": [
    {
      "type": "Feature",
      "properties": {
        "norad_id": 43783,
        "name": "KAZSTSAT",
        "group": "resource",
        "lat": 53.24996275422248,
        "lon": 25.373292460567658,
        "alt_km": 567.5762664300946,
        "timestamp": "2025-12-26T21:25:52.664165+00:00",
        "meta_object_name": "KAZSTSAT",
        "meta_object_id": "2018-099AB",
        "meta_epoch": "2025-12-26T14:47:05.535456",
        "meta_mean_motion": 14.99374836,
        "meta_eccentricity": 0.00064174,
        "meta_inclination": 97.451,
        "meta_ra_of_asc_node": 35.2021,
        "meta_arg_of_pericenter": 268.436,
        "meta_mean_anomaly": 91.6129,
        "meta_ephemeris_type": 0,
        "meta_classification_type": "U",
        "meta_norad_cat_id": 43783,
        "meta_element_set_no": 999,
        "meta_rev_at_epoch": 38544,
        "meta_bstar": 7.1083989e-05,
        "meta_mean_motion_dot": 8.14e-06,
        "meta_mean_motion_ddot": 0,
        "tle_line1": "1 43783U 18099AB  25360.61603629  .00000814  00000+0  71084-4 0  9997",
        "tle_line2": "2 43783  97.4510  35.2021 0006417 268.4360  91.6129 14.99374836385449"
      },
      "geometry": {
        "type": "Point",
        "coordinates": [
          25.373292460567658,
          53.24996275422248
        ]
      }
    },
    {
      "type": "Feature",
      "properties": {
        "norad_id": 43831,
        "name": "SAUDISAT 5A",
        "group": "resource",
        "lat": 8.240424324428114,
        "lon": 59.741808909453326,
        "alt_km": 483.3538111437838,
        "timestamp": "2025-12-26T21:25:52.664175+00:00",
        "meta_object_name": "SAUDISAT 5A",
        "meta_object_id": "2018-102A",
        "meta_epoch": "2025-12-26T15:05:57.660576",
        "meta_mean_motion": 15.25827685,
        "meta_eccentricity": 0.00109467,
        "meta_inclination": 97.333,
        "meta_ra_of_asc_node": 60.5517,
        "meta_arg_of_pericenter": 32.7911,
        "meta_mean_anomaly": 327.4004,
        "meta_ephemeris_type": 0,
        "meta_classification_type": "U",
        "meta_norad_cat_id": 43831,
        "meta_element_set_no": 999,
        "meta_rev_at_epoch": 38934,
        "meta_bstar": 0.00025591802,
        "meta_mean_motion_dot": 6.485e-05,
        "meta_mean_motion_ddot": 0,
        "tle_line1": "1 43831U 18102A   25360.62913959  .00006485  00000+0  25592-3 0  9999",
        "tle_line2": "2 43831  97.3330  60.5517 0010946  32.7911 327.4004 15.25827685389349"
      },
      "geometry": {
        "type": "Point",
        "coordinates": [
          59.741808909453326,
          8.240424324428114
        ]
      }
    },
    {
      "type": "Feature",
      "properties": {
        "norad_id": 43833,
        "name": "SAUDISAT 5B",
        "group": "resource",
        "lat": 76.42640105274248,
        "lon": 31.292859506868947,
        "alt_km": 474.34431439872606,
        "timestamp": "2025-12-26T21:25:52.664185+00:00",
        "meta_object_name": "SAUDISAT 5B",
        "meta_object_id": "2018-102C",
        "meta_epoch": "2025-12-26T14:47:41.385408",
        "meta_mean_motion": 15.2617251,
        "meta_eccentricity": 0.00116926,
        "meta_inclination": 97.3425,
        "meta_ra_of_asc_node": 63.3028,
        "meta_arg_of_pericenter": 34.8805,
        "meta_mean_anomaly": 325.3197,
        "meta_ephemeris_type": 0,
        "meta_classification_type": "U",
        "meta_norad_cat_id": 43833,
        "meta_element_set_no": 999,
        "meta_rev_at_epoch": 38945,
        "meta_bstar": 0.0002454683,
        "meta_mean_motion_dot": 6.284e-05,
        "meta_mean_motion_ddot": 0,
        "tle_line1": "1 43833U 18102C   25360.61645122  .00006284  00000+0  24547-3 0  9990",
        "tle_line2": "2 43833  97.3425  63.3028 0011692  34.8805 325.3197 15.26172510389451"
      },
      "geometry": {
        "type": "Point",
        "coordinates": [
          31.292859506868947,
          76.42640105274248
        ]
      }
    },
    {
      "type": "Feature",
      "properties": {
        "norad_id": 44622,
        "name": "GAOFEN-10R",
        "group": "resource",
        "lat": -19.11424142808797,
        "lon": -48.73989672051473,
        "alt_km": 620.9540950389273,
        "timestamp": "2025-12-26T21:25:52.664196+00:00",
        "meta_object_name": "GAOFEN-10R",
        "meta_object_id": "2019-066A",
        "meta_epoch": "2025-12-26T15:02:24.230112",
        "meta_mean_motion": 14.82839065,
        "meta_eccentricity": 0.00068784,
        "meta_inclination": 98.0296,
        "meta_ra_of_asc_node": 308.1886,
        "meta_arg_of_pericenter": 0.6056,
        "meta_mean_anomaly": 359.5165,
        "meta_ephemeris_type": 0,
        "meta_classification_type": "U",
        "meta_norad_cat_id": 44622,
        "meta_element_set_no": 999,
        "meta_rev_at_epoch": 33680,
        "meta_bstar": 0.00022964027,
        "meta_mean_motion_dot": 1.805e-05,
        "meta_mean_motion_ddot": 0,
        "tle_line1": "1 44622U 19066A   25360.62666933  .00001805  00000+0  22964-3 0  9996",
        "tle_line2": "2 44622  98.0296 308.1886 0006878   0.6056 359.5165 14.82839065336804"
      },
      "geometry": {
        "type": "Point",
        "coordinates": [
          -48.73989672051473,
          -19.11424142808797
        ]
      }
    },
    {
      "type": "Feature",
      "properties": {
        "norad_id": 44804,
        "name": "CARTOSAT-3",
        "group": "resource",
        "lat": -15.236356628240367,
        "lon": -121.74881880443189,
        "alt_km": 521.4679211364537,
        "timestamp": "2025-12-26T21:25:52.664207+00:00",
        "meta_object_name": "CARTOSAT-3",
        "meta_object_id": "2019-081A",
        "meta_epoch": "2025-12-26T14:15:08.620992",
        "meta_mean_motion": 15.19272552,
        "meta_eccentricity": 0.00135763,
        "meta_inclination": 97.4558,
        "meta_ra_of_asc_node": 60.0001,
        "meta_arg_of_pericenter": 39.2325,
        "meta_mean_anomaly": 320.9891,
        "meta_ephemeris_type": 0,
        "meta_classification_type": "U",
        "meta_norad_cat_id": 44804,
        "meta_element_set_no": 999,
        "meta_rev_at_epoch": 33726,
        "meta_bstar": 0.00033977436,
        "meta_mean_motion_dot": 7.116e-05,
        "meta_mean_motion_ddot": 0,
        "tle_line1": "1 44804U 19081A   25360.59384978  .00007116  00000+0  33977-3 0  9994",
        "tle_line2": "2 44804  97.4558  60.0001 0013576  39.2325 320.9891 15.19272552337265"
      },
      "geometry": {
        "type": "Point",
        "coordinates": [
          -121.74881880443189,
          -15.236356628240367
        ]
      }
    },
    {
      "type": "Feature",
      "properties": {
        "norad_id": 44819,
        "name": "GAOFEN-12 01",
        "group": "resource",
        "lat": 41.278238436396066,
        "lon": -166.2750374361521,
        "alt_km": 622.5871716729707,
        "timestamp": "2025-12-26T21:25:52.664217+00:00",
        "meta_object_name": "GAOFEN-12 01",
        "meta_object_id": "2019-082A",
        "meta_epoch": "2025-12-26T14:19:18.587424",
        "meta_mean_motion": 14.80673212,
        "meta_eccentricity": 0.00023242,
        "meta_inclination": 97.8125,
        "meta_ra_of_asc_node": 6.514,
        "meta_arg_of_pericenter": 174.04,
        "meta_mean_anomaly": 186.0841,
        "meta_ephemeris_type": 0,
        "meta_classification_type": "U",
        "meta_norad_cat_id": 44819,
        "meta_element_set_no": 999,
        "meta_rev_at_epoch": 32855,
        "meta_bstar": 7.6527149e-05,
        "meta_mean_motion_dot": 5.37e-06,
        "meta_mean_motion_ddot": 0,
        "tle_line1": "1 44819U 19082A   25360.59674291  .00000537  00000+0  76527-4 0  9990",
        "tle_line2": "2 44819  97.8125   6.5140 0002324 174.0400 186.0841 14.80673212328558"
      },
      "geometry": {
        "type": "Point",
        "coordinates": [
          -166.2750374361521,
          41.278238436396066
        ]
      }
    },
    {
      "type": "Feature",
      "properties": {
        "norad_id": 44873,
        "name": "CSG-1",
        "group": "resource",
        "lat": -34.73624289773013,
        "lon": -172.4851053243708,
        "alt_km": 629.2619642917307,
        "timestamp": "2025-12-26T21:25:52.664228+00:00",
        "meta_object_name": "CSG-1",
        "meta_object_id": "2019-092A",
        "meta_epoch": "2025-12-26T15:06:30.415680",
        "meta_mean_motion": 14.82163091,
        "meta_eccentricity": 0.00014474,
        "meta_inclination": 97.8805,
        "meta_ra_of_asc_node": 181.7445,
        "meta_arg_of_pericenter": 84.7086,
        "meta_mean_anomaly": 275.4292,
        "meta_ephemeris_type": 0,
        "meta_classification_type": "U",
        "meta_norad_cat_id": 44873,
        "meta_element_set_no": 999,
        "meta_rev_at_epoch": 32591,
        "meta_bstar": 9.244047e-05,
        "meta_mean_motion_dot": 6.84e-06,
        "meta_mean_motion_ddot": 0,
        "tle_line1": "1 44873U 19092A   25360.62951870  .00000684  00000+0  92440-4 0  9991",
        "tle_line2": "2 44873  97.8805 181.7445 0001447  84.7086 275.4292 14.82163091325910"
      },
      "geometry": {
        "type": "Point",
        "coordinates": [
          -172.4851053243708,
          -34.73624289773013
        ]
      }
    }
  ]
}